CCSDS_OMM_VERS,COMMENT,CREATION_DATE,ORIGINATOR,OBJECT_NAME,OBJECT_ID,CENTER_NAME,REF_FRAME,TIME_SYSTEM,MEAN_ELEMENT_THEORY,EPOCH,MEAN_MOTION,ECCENTRICITY,INCLINATION,RA_OF_ASC_NODE,ARG_OF_PERICENTER,MEAN_ANOMALY,EPHEMERIS_TYPE,CLASSIFICATION_TYPE,NORAD_CAT_ID,ELEMENT_SET_NO,REV_AT_EPOCH,BSTAR,MEAN_MOTION_DOT,MEAN_MOTION_DDOT,SEMIMAJOR_AXIS,PERIOD,APOAPSIS,PERIAPSIS,OBJECT_TYPE,RCS_SIZE,COUNTRY_CODE,LAUNCH_DATE,SITE,DECAY_DATE,FILE,GP_ID,TLE_LINE0,TLE_LINE1,TLE_LINE2
2.0,GENERATED VIA SPACE-TRACK.ORG API,2022-08-20T07:16:13,18 SPCS,STARLINK-1591,2020-055U,EARTH,TEME,UTC,SGP4,2022-08-20T04:06:48.150432,15.06379706,0.000157,53.055,191.4043,65.9665,294.1488,0,U,46045,999,11281,-5.5314e-05,-1.105e-05,0.0,6925.411,95.593,548.363,546.188,PAYLOAD,LARGE,US,2020-08-07,AFETR,,3540841,210553202,0 STARLINK-1591,1 46045U 20055U   22232.17139063 -.00001105  00000-0 -55314-4 0  9993,2 46045  53.0550 191.4043 0001570  65.9665 294.1488 15.06379706112814
2.0,GENERATED VIA SPACE-TRACK.ORG API,2022-08-20T07:06:17,18 SPCS,STARLINK-1848,2020-074B,EARTH,TEME,UTC,SGP4,2022-08-20T04:06:46.830240,15.06399512,0.0001131,53.055,31.4099,101.5577,258.5539,0,U,46740,999,10104,0.00014701,1.909e-05,0.0,6925.35,95.592,547.998,546.432,PAYLOAD,LARGE,US,2020-10-24,AFETR,,3540821,210553006,0 STARLINK-1848,1 46740U 20074B   22232.17137535  .00001909  00000-0  14701-3 0  9992,2 46740  53.0550  31.4099 0001131 101.5577 258.5539 15.06399512101043
2.0,GENERATED VIA SPACE-TRACK.ORG API,2022-08-20T06:56:12,18 SPCS,STARLINK-2726,2021-044AA,EARTH,TEME,UTC,SGP4,2022-08-20T04:06:07.186464,15.06394624,0.0001496,53.0552,176.4206,74.103,286.0124,0,U,48662,999,6912,4.9245e-05,4.52e-06,0.0,6925.365,95.592,548.266,546.194,PAYLOAD,LARGE,US,2021-05-26,AFETR,,3540773,210552179,0 STARLINK-2726,1 48662U 21044AA  22232.17091651  .00000452  00000-0  49245-4 0  9997,2 48662  53.0552 176.4206 0001496  74.1030 286.0124 15.06394624 69120
2.0,GENERATED VIA SPACE-TRACK.ORG API,2022-08-20T07:16:13,18 SPCS,STARLINK-1579,2020-055BJ,EARTH,TEME,UTC,SGP4,2022-08-20T04:05:27.496032,15.06388167,0.0001356,53.0552,161.4105,83.4968,276.6175,0,U,46083,999,11320,-0.00011523,-1.997e-05,0.0,6925.385,95.593,548.189,546.311,PAYLOAD,LARGE,US,2020-08-07,AFETR,,3540840,210553420,0 STARLINK-1579,1 46083U 20055BJ  22232.17045713 -.00001997  00000-0 -11523-3 0  9995,2 46083  53.0552 161.4105 0001356  83.4968 276.6175 15.06388167113200
2.0,GENERATED VIA SPACE-TRACK.ORG API,2022-08-20T06:56:12,18 SPCS,STARLINK-2451,2021-027Y,EARTH,TEME,UTC,SGP4,2022-08-20T04:05:26.263968,15.06387399,0.0001311,53.0527,231.4111,79.5971,280.5166,0,U,48114,999,7652,-1.1282e-05,-4.49e-06,0.0,6925.387,95.593,548.16,546.344,PAYLOAD,LARGE,US,2021-04-07,AFETR,,3540790,210551972,0 STARLINK-2451,1 48114U 21027Y   22232.17044287 -.00000449  00000-0 -11282-4 0  9991,2 48114  53.0527 231.4111 0001311  79.5971 280.5166 15.06387399 76528
2.0,GENERATED VIA SPACE-TRACK.ORG API,2022-08-20T14:46:13,18 SPCS,STARLINK-1344,2020-025AE,EARTH,TEME,UTC,SGP4,2022-08-20T04:05:26.039328,15.06384055,0.0001574,53.0545,151.3494,71.8472,288.2688,0,U,45559,999,12920,-3.0773e-05,-7.4e-06,0.0,6925.397,95.593,548.352,546.172,PAYLOAD,LARGE,US,2020-04-22,AFETR,,3541157,210558525,0 STARLINK-1344,1 45559U 20025AE  22232.17044027 -.00000740  00000-0 -30773-4 0  9990,2 45559  53.0545 151.3494 0001574  71.8472 288.2688 15.06384055129208
2.0,GENERATED VIA SPACE-TRACK.ORG API,2022-08-20T07:26:12,18 SPCS,STARLINK-3397,2022-005M,EARTH,TEME,UTC,SGP4,2022-08-20T04:04:57.755424,15.08820523,0.0001468,53.2176,353.9027,60.5977,299.5162,0,U,51115,999,3410,-0.00024655,-4.208e-05,0.0,6917.94,95.439,540.82,538.789,PAYLOAD,LARGE,US,2022-01-19,AFETR,,3540866,210553957,0 STARLINK-3397,1 51115U 22005M   22232.17011291 -.00004208  00000-0 -24655-3 0  9996,2 51115  53.2176 353.9027 0001468  60.5977 299.5162 15.08820523 34107
2.0,GENERATED VIA SPACE-TRACK.ORG API,2022-08-20T06:56:12,18 SPCS,STARLINK-1834,2020-074AU,EARTH,TEME,UTC,SGP4,2022-08-20T04:04:47.949888,15.06389812,8.76e-05,53.0563,26.4249,106.0318,254.0767,0,U,46781,999,10084,-0.00013231,-2.251e-05,0.0,6925.38,95.593,547.851,546.638,PAYLOAD,LARGE,US,2020-10-24,AFETR,,3540806,210552602,0 STARLINK-1834,1 46781U 20074AU  22232.16999942 -.00002251  00000-0 -13231-3 0  9994,2 46781  53.0563  26.4249 0000876 106.0318 254.0767 15.06389812100844
2.0,GENERATED VIA SPACE-TRACK.ORG API,2022-08-20T08:36:13,18 SPCS,GAOFEN 8,2015-030A,EARTH,TEME,UTC,SGP4,2022-08-20T04:04:45.880608,15.23349137,0.0001445,97.5694,7.2499,98.1189,74.9633,0,U,40701,999,39808,0.00024236,5.685e-05,0.0,6873.884,94.529,496.742,494.756,PAYLOAD,LARGE,PRC,2015-06-26,TSC,,3540945,210555408,0 GAOFEN 8,1 40701U 15030A   22232.16997547  .00005685  00000-0  24236-3 0  9994,2 40701  97.5694   7.2499 0001445  98.1189  74.9633 15.23349137398083
2.0,GENERATED VIA SPACE-TRACK.ORG API,2022-08-20T07:06:17,18 SPCS,STARLINK-2675,2021-040AU,EARTH,TEME,UTC,SGP4,2022-08-20T04:04:45.508224,15.06397777,0.0001595,53.053,256.4046,61.1423,298.9726,0,U,48470,999,7220,2.4998e-05,9.1e-07,0.0,6925.355,95.592,548.325,546.116,PAYLOAD,LARGE,US,2021-05-09,AFETR,,3540825,210553060,0 STARLINK-2675,1 48470U 21040AU  22232.16997116  .00000091  00000-0  24998-4 0  9997,2 48470  53.0530 256.4046 0001595  61.1423 298.9726 15.06397777 72201
2.0,GENERATED VIA SPACE-TRACK.ORG API,2022-08-20T07:06:17,18 SPCS,STARLINK-1055,2019-074AZ,EARTH,TEME,UTC,SGP4,2022-08-20T04:04:09.021504,15.0638612,0.0001355,53.0548,291.4258,80.3157,279.7984,0,U,44760,999,15280,-5.8249e-05,-1.149e-05,0.0,6925.391,95.593,548.194,546.318,PAYLOAD,LARGE,US,2019-11-11,AFETR,,3540825,210553064,0 STARLINK-1055,1 44760U 19074AZ  22232.16954886 -.00001149  00000-0 -58249-4 0  9999,2 44760  53.0548 291.4258 0001355  80.3157 279.7984 15.06386120152801
2.0,GENERATED VIA SPACE-TRACK.ORG API,2022-08-20T09:06:13,18 SPCS,STARLINK-2581,2021-038BM,EARTH,TEME,UTC,SGP4,2022-08-20T04:03:33.054048,15.06395348,0.0001561,53.0551,356.8507,86.4538,273.663,0,U,48412,999,7301,-0.00014278,-2.407e-05,0.0,6925.363,95.592,548.309,546.147,PAYLOAD,LARGE,US,2021-05-04,AFETR,,3540987,210556052,0 STARLINK-2581,1 48412U 21038BM  22232.16913257 -.00002407  00000-0 -14278-3 0  9998,2 48412  53.0551 356.8507 0001561  86.4538 273.6630 15.06395348 73013
2.0,GENERATED VIA SPACE-TRACK.ORG API,2022-08-20T07:56:12,18 SPCS,STARLINK-2233,2021-041AC,EARTH,TEME,UTC,SGP4,2022-08-20T04:03:28.611360,15.0639307,0.0001597,53.0542,196.4225,67.0137,293.102,0,U,48579,999,7008,-2.6318e-05,-6.73e-06,0.0,6925.37,95.593,548.341,546.129,PAYLOAD,LARGE,US,2021-05-15,AFETR,,3540902,210554487,0 STARLINK-2233,1 48579U 21041AC  22232.16908115 -.00000673  00000-0 -26318-4 0  9995,2 48579  53.0542 196.4225 0001597  67.0137 293.1020 15.06393070 70085
2.0,GENERATED VIA SPACE-TRACK.ORG API,2022-08-20T07:26:12,18 SPCS,STARLINK-2481,2021-027AY,EARTH,TEME,UTC,SGP4,2022-08-20T04:03:28.556064,15.0639265,0.0001679,53.0525,236.4284,65.7455,294.3709,0,U,48138,999,7645,1.0754e-05,-1.21e-06,0.0,6925.371,95.593,548.399,546.073,PAYLOAD,LARGE,US,2021-04-07,AFETR,,3540862,210553657,0 STARLINK-2481,1 48138U 21027AY  22232.16908051 -.00000121  00000-0  10754-4 0  9993,2 48138  53.0525 236.4284 0001679  65.7455 294.3709 15.06392650 76453
2.0,GENERATED VIA SPACE-TRACK.ORG API,2022-08-20T07:06:17,18 SPCS,STARLINK-1564,2020-055AH,EARTH,TEME,UTC,SGP4,2022-08-20T04:02:49.008192,15.06384806,0.0001391,53.0547,181.412,73.2973,286.8168,0,U,46058,999,11293,-1.6339e-05,-5.25e-06,0.0,6925.395,95.593,548.223,546.297,PAYLOAD,LARGE,US,2020-08-07,AFETR,,3540828,210552859,0 STARLINK-1564,1 46058U 20055AH  22232.16862278 -.00000525  00000-0 -16339-4 0  9996,2 46058  53.0547 181.4120 0001391  73.2973 286.8168 15.06384806112937
2.0,GENERATED VIA SPACE-TRACK.ORG API,2022-08-20T08:36:13,18 SPCS,KOMPSAT 3,2012-025B,EARTH,TEME,UTC,SGP4,2022-08-20T04:02:21.837120,14.61898854,0.0010752,98.1821,171.6372,168.1696,191.9766,0,U,38338,999,54728,6.0296e-05,2.55e-06,0.0,7065.186,98.502,694.648,679.455,PAYLOAD,LARGE,SKOR,2012-05-17,TNSTA,,3540950,210555306,0 KOMPSAT 3,1 38338U 12025B   22232.16830830  .00000255  00000-0  60296-4 0  9994,2 38338  98.1821 171.6372 0010752 168.1696 191.9766 14.61898854547284
2.0,GENERATED VIA SPACE-TRACK.ORG API,2022-08-20T08:16:12,18 SPCS,STARLINK-3149,2021-104R,EARTH,TEME,UTC,SGP4,2022-08-20T04:02:19.218336,15.08831157,0.0001818,53.2171,293.9356,57.8996,302.2172,0,U,49423,999,4382,-0.00010036,-1.885e-05,0.0,6917.907,95.438,541.03,538.515,PAYLOAD,LARGE,US,2021-11-13,AFETR,,3540933,210555062,0 STARLINK-3149,1 49423U 21104R   22232.16827799 -.00001885  00000-0 -10036-3 0  9997,2 49423  53.2171 293.9356 0001818  57.8996 302.2172 15.08831157 43825
2.0,GENERATED VIA SPACE-TRACK.ORG API,2022-08-20T07:46:12,18 SPCS,SJ-11-08,2014-066A,EARTH,TEME,UTC,SGP4,2022-08-20T04:02:05.033184,14.62156811,0.0011901,98.1794,352.0937,293.6301,66.366,0,U,40286,999,41681,7.0613e-05,3.08e-06,0.0,7064.355,98.485,694.628,677.813,PAYLOAD,LARGE,PRC,2014-10-27,JSC,,3540884,210554209,0 SJ-11-08,1 40286U 14066A   22232.16811381  .00000308  00000-0  70613-4 0  9999,2 40286  98.1794 352.0937 0011901 293.6301  66.3660 14.62156811416817
2.0,GENERATED VIA SPACE-TRACK.ORG API,2022-08-20T08:36:13,18 SPCS,SJ-11-02,2011-039A,EARTH,TEME,UTC,SGP4,2022-08-20T04:01:57.978624,14.61833727,0.0010064,98.449,83.6807,307.0124,53.0148,0,U,37765,999,58977,4.2299e-05,1.61e-06,0.0,7065.396,98.506,694.372,680.151,PAYLOAD,LARGE,PRC,2011-07-29,JSC,,3540948,210555287,0 SJ-11-02,1 37765U 11039A   22232.16803216  .00000161  00000-0  42299-4 0  9998,2 37765  98.4490  83.6807 0010064 307.0124  53.0148 14.61833727589773
2.0,GENERATED VIA SPACE-TRACK.ORG API,2022-08-20T07:16:13,18 SPCS,STARLINK-1576,2020-055P,EARTH,TEME,UTC,SGP4,2022-08-20T04:01:29.060544,15.06394169,0.0001388,53.0525,191.4121,65.6162,294.4972,0,U,46040,999,11281,5.2838e-05,5.06e-06,0.0,6925.366,95.593,548.193,546.27,PAYLOAD,LARGE,US,2020-08-07,AFETR,,3540840,210553188,0 STARLINK-1576,1 46040U 20055P   22232.16769746  .00000506  00000-0  52838-4 0  9994,2 46040  53.0525 191.4121 0001388  65.6162 294.4972 15.06394169112815
